#aV2010  2 28  0  0   .00000000      96 DD+AD WGS84 FIT  NGA
## 1573       .00000000   900.00000000 55255  .0000000000000
+   32     1  2  3  4  5  6  7  8  9 10 11 12 13 14 15 16 17
+         18 19 20 21 22 23 24 25 26 27 28 29 30 31 32  0  0
+          0  0  0  0  0  0  0  0  0  0  0  0  0  0  0  0  0
+          0  0  0  0  0  0  0  0  0  0  0  0  0  0  0  0  0
+          0  0  0  0  0  0  0  0  0  0  0  0  0  0  0  0  0
++         0  0  0  0  0  0  0  0  0  0  0  0  0  0  0  0  0
++         0  0  0  0  0  0  0  0  0  0  0  0  0  0  0  0  0
++         0  0  0  0  0  0  0  0  0  0  0  0  0  0  0  0  0
++         0  0  0  0  0  0  0  0  0  0  0  0  0  0  0  0  0
++         0  0  0  0  0  0  0  0  0  0  0  0  0  0  0  0  0
%c cc cc ccc ccc cccc cccc cccc cccc ccccc ccccc ccccc ccccc
%c cc cc ccc ccc cccc cccc cccc cccc ccccc ccccc ccccc ccccc
%f  0.0000000  0.000000000  0.00000000000  0.000000000000000
%f  0.0000000  0.000000000  0.00000000000  0.000000000000000
%i    0    0    0    0      0      0      0      0         0
%i    0    0    0    0      0      0      0      0         0
/*      NGA, ST. LOUIS,MO.                                  
/*   EPHEMERIS COMPUTED FROM  3 DAYS OF DATA                
/* CCCCCCCCCCCCCCCCCCCCCCCCCCCCCCCCCCCCCCCCCCCCCCCCCCCCCCCCC
/* CCCCCCCCCCCCCCCCCCCCCCCCCCCCCCCCCCCCCCCCCCCCCCCCCCCCCCCCC
*  2010  2 28  6 45   .00000000                                                 
P  1  10333.872924  15132.843037 -19398.818033    -93.528427                    
V  1 -24239.257396  -2361.185958 -14704.718138      -.039590                    
P  2 -20229.483344   8926.133874 -14437.464858    231.358804                    
V  2   9051.223778 -16359.257458 -23320.533440       .040059                    
P  3  15929.815360  -3145.702235  20706.120752    521.728497                    
V  3  12357.866963  24232.905355  -5383.732548       .049597                    
P  4 -15785.540450  -4891.033924 -21017.930260     25.496966                    
V  4  16014.473497 -20898.114404  -6859.291125       .089270                    
P  5 -24690.335242   3015.476763   9414.004925     -5.777309                    
V  5 -11459.411351  -4259.814783 -28540.249176       .019122                    
P  6  17099.426182   1123.705828  20500.741539    697.171320                    
V  6   9624.869830  23846.644675  -9295.059289      -.062005                    
P  7   2019.521002 -20610.570828  16533.290382      2.260112                    
V  7  14523.914232 -15331.308919 -21028.176940      -.005023                    
P  8  -8563.539221 -11980.254199  22042.536971      3.715196                    
V  8  19246.113916 -20340.907335  -4081.412835       .004191                    
P  9 -15701.191119  21390.272390   -415.029929    108.701475                    
V  9  -1647.956160  -1579.634640  32189.781807       .022172                    
P 10 -26458.843621  -2737.830760   2638.242816    -36.639094                    
V 10  -3015.628716  -3299.466515 -31145.955131      -.010145                    
P 11   9909.419714 -24378.451041  -1883.331750    -47.851625                    
V 11   5746.950813    346.028335  30172.123510      -.021154                    
P 12 -10941.847509  12556.606014 -20599.398446   -144.608797                    
V 12 -25816.543175  -5077.013616  10727.843991       .047080                    
P 13  -4580.989769 -25657.448516  -5204.167075    306.290001                    
V 13   3568.066831   5602.772363 -31581.618226      -.001478                    
P 14  14474.955241  19118.586599 -11415.781541     16.711856                    
V 14   3158.116937  14372.810579  27627.847420       .042334                    
P 15 -11037.612949  12095.560785  20912.195535   -302.757896                    
V 15 -10862.033940 -24240.769749   8406.635519       .034454                    
P 16  26382.712278   2245.500922   3529.610969    -46.093526                    
V 16   3921.632032   2973.811921 -31387.276165      -.039624                    
P 17 -15448.383155 -18191.920923 -11781.327817    133.269243                    
V 17  -3063.567391 -14882.943796  26583.092427       .030012                    
P 18   9346.885336  16065.200720  19359.035750     51.933013                    
V 18 -23863.879280  -2878.315795  13725.307873       .026070                    
P 19  11127.014846 -12740.847486  20441.107084    -18.422259                    
V 19   8653.656882  24500.446025  10867.894822      -.023702                    
P 20   6937.161241 -14750.176100 -21099.979074     60.441544                    
V 20  26295.272780   3888.941436   6022.186952      -.007015                    
P 21   3148.821591  18364.237611  19006.163742    -43.530564                    
V 21 -16638.710768  17137.976910 -14661.937320      -.024805                    
P 22  20501.350691  12452.434714  11649.908065    178.050711                    
V 22 -14867.156313    274.890345  26145.183967      -.006980                    
P 23   2146.821235 -22075.563314 -14409.537429    378.721324                    
V 23   8543.108509  16382.011971 -24167.525296      -.010040                    
P 24  -3847.173020  21287.093776  15683.792082    266.297328                    
V 24 -14536.117869  13401.209830 -21628.201263       .033752                    
P 25  -9188.415625  14361.851080 -20672.721117     70.475160                    
V 25 -25493.685563  -2296.556896   9982.874048       .779573                    
P 26   7712.432382  25118.066826    487.868943    -22.977954                    
V 26  -2531.543334   -533.048240  32734.181462      -.038510                    
P 27 -17398.069395  19690.381590   4067.522153    129.954689                    
V 27    637.771638  -4842.218231  31656.106238       .032784                    
P 28 -18586.076014 -13368.157546  14186.098589    -21.366659                    
V 28  17095.524465   1529.462554  24373.118539       .006457                    
P 29   3498.107310  25245.939612  -7451.692649    101.419523                    
V 29  -5706.375316  -8129.540987 -29814.169758       .029776                    
P 30   1075.892216  15653.367221 -21824.764064    220.325259                    
V 30 -26685.996778  -2599.341873  -3182.398446       .032934                    
P 31  16310.783967   2021.534204 -20686.104804    -49.572222                    
V 31 -16106.844715  21277.832728 -10346.411330       .016867                    
P 32  16976.529706  -8824.978896 -17926.529650     85.203009                    
V 32  22516.154498   7331.078840  17691.998879      -.084972                    
EOF
